<?xml version='1.0' encoding='UTF-8'?>
<kml xmlns="http://www.opengis.net/kml/2.2">
  <Document>
    <name>Capa: Baches</name>
    <Style id="icon-1608-0288D1-normal">
      <IconStyle>
        <color>ffd18802</color>
        <scale>1</scale>
        <Icon>
          <href>https://www.gstatic.com/mapspro/images/stock/503-wht-blank_maps.png</href>
        </Icon>
      </IconStyle>
      <LabelStyle>
        <scale>0</scale>
      </LabelStyle>
    </Style>
    <Style id="icon-1608-0288D1-highlight">
      <IconStyle>
        <color>ffd18802</color>
        <scale>1</scale>
        <Icon>
          <href>https://www.gstatic.com/mapspro/images/stock/503-wht-blank_maps.png</href>
        </Icon>
      </IconStyle>
      <LabelStyle>
        <scale>1</scale>
      </LabelStyle>
    </Style>
    <StyleMap id="icon-1608-0288D1">
      <Pair>
        <key>normal</key>
        <styleUrl>#icon-1608-0288D1-normal</styleUrl>
      </Pair>
      <Pair>
        <key>highlight</key>
        <styleUrl>#icon-1608-0288D1-highlight</styleUrl>
      </Pair>
    </StyleMap>
    <Style id="icon-1608-0F9D58-normal">
      <IconStyle>
        <color>ff589d0f</color>
        <scale>1</scale>
        <Icon>
          <href>https://www.gstatic.com/mapspro/images/stock/503-wht-blank_maps.png</href>
        </Icon>
      </IconStyle>
      <LabelStyle>
        <scale>0</scale>
      </LabelStyle>
    </Style>
    <Style id="icon-1608-0F9D58-highlight">
      <IconStyle>
        <color>ff589d0f</color>
        <scale>1</scale>
        <Icon>
          <href>https://www.gstatic.com/mapspro/images/stock/503-wht-blank_maps.png</href>
        </Icon>
      </IconStyle>
      <LabelStyle>
        <scale>1</scale>
      </LabelStyle>
    </Style>
    <StyleMap id="icon-1608-0F9D58">
      <Pair>
        <key>normal</key>
        <styleUrl>#icon-1608-0F9D58-normal</styleUrl>
      </Pair>
      <Pair>
        <key>highlight</key>
        <styleUrl>#icon-1608-0F9D58-highlight</styleUrl>
      </Pair>
    </StyleMap>
    <Placemark>
      <name>#1</name>
      <styleUrl>#icon-1608-0F9D58</styleUrl>
      <Point>
        <coordinates>
          -55.8648212,-27.3311517,0
        </coordinates>
      </Point>
    </Placemark>
    <Placemark>
      <name>#2</name>
      <styleUrl>#icon-1608-0F9D58</styleUrl>
      <Point>
        <coordinates>
          -55.8671397,-27.3304712,0
        </coordinates>
      </Point>
    </Placemark>
    <Placemark>
      <name>#3</name>
      <styleUrl>#icon-1608-0F9D58</styleUrl>
      <Point>
        <coordinates>
          -55.8660036,-27.3342096,0
        </coordinates>
      </Point>
    </Placemark>
    <Placemark>
      <name>#4</name>
      <styleUrl>#icon-1608-0F9D58</styleUrl>
      <Point>
        <coordinates>
          -55.8644196,-27.3346958,0
        </coordinates>
      </Point>
    </Placemark>
    <Placemark>
      <name>#5</name>
      <styleUrl>#icon-1608-0F9D58</styleUrl>
      <Point>
        <coordinates>
          -55.8643753,-27.3351378,0
        </coordinates>
      </Point>
    </Placemark>
    <Placemark>
      <name>#6</name>
      <styleUrl>#icon-1608-0F9D58</styleUrl>
      <Point>
        <coordinates>
          -55.8639311,-27.3353788,0
        </coordinates>
      </Point>
    </Placemark>
    <Placemark>
      <name>#7</name>
      <styleUrl>#icon-1608-0288D1</styleUrl>
      <Point>
        <coordinates>
          -55.863569,-27.3353466,0
        </coordinates>
      </Point>
    </Placemark>
    <Placemark>
      <name>#8</name>
      <styleUrl>#icon-1608-0288D1</styleUrl>
      <Point>
        <coordinates>
          -55.8630509,-27.3339628,0
        </coordinates>
      </Point>
    </Placemark>
    <Placemark>
      <name>#9</name>
      <styleUrl>#icon-1608-0F9D58</styleUrl>
      <Point>
        <coordinates>
          -55.8639085,-27.3412595,0
        </coordinates>
      </Point>
    </Placemark>
    <Placemark>
      <name>#10</name>
      <styleUrl>#icon-1608-0F9D58</styleUrl>
      <Point>
        <coordinates>
          -55.8655787,-27.3410031,0
        </coordinates>
      </Point>
    </Placemark>
    <Placemark>
      <name>#11</name>
      <styleUrl>#icon-1608-0F9D58</styleUrl>
      <Point>
        <coordinates>
          -55.8644158,-27.342202,0
        </coordinates>
      </Point>
    </Placemark>
    <Placemark>
      <name>#12</name>
      <styleUrl>#icon-1608-0F9D58</styleUrl>
      <Point>
        <coordinates>
          -55.8691322,-27.3331069,0
        </coordinates>
      </Point>
    </Placemark>
    <Placemark>
      <name>#13</name>
      <styleUrl>#icon-1608-0F9D58</styleUrl>
      <Point>
        <coordinates>
          -55.8700777,-27.3332034,0
        </coordinates>
      </Point>
    </Placemark>
    <Placemark>
      <name>#14</name>
      <styleUrl>#icon-1608-0288D1</styleUrl>
      <Point>
        <coordinates>
          -55.8703941,-27.3345853,0
        </coordinates>
      </Point>
    </Placemark>
    <Placemark>
      <name>#15</name>
      <styleUrl>#icon-1608-0F9D58</styleUrl>
      <Point>
        <coordinates>
          -55.8689604,-27.334453,0
        </coordinates>
      </Point>
    </Placemark>
    <Placemark>
      <name>#17</name>
      <styleUrl>#icon-1608-0F9D58</styleUrl>
      <Point>
        <coordinates>
          -55.8669398,-27.3342957,0
        </coordinates>
      </Point>
    </Placemark>
    <Placemark>
      <name>#18</name>
      <styleUrl>#icon-1608-0F9D58</styleUrl>
      <Point>
        <coordinates>
          -55.8673117,-27.3343353,0
        </coordinates>
      </Point>
    </Placemark>
    <Placemark>
      <name>#19</name>
      <styleUrl>#icon-1608-0288D1</styleUrl>
      <Point>
        <coordinates>
          -55.8631205,-27.3328348,0
        </coordinates>
      </Point>
    </Placemark>
    <Placemark>
      <name>#20</name>
      <styleUrl>#icon-1608-0F9D58</styleUrl>
      <Point>
        <coordinates>
          -55.8632922,-27.3339928,0
        </coordinates>
      </Point>
    </Placemark>
    <Placemark>
      <name>#21</name>
      <styleUrl>#icon-1608-0F9D58</styleUrl>
      <Point>
        <coordinates>
          -55.871787,-27.3398976,0
        </coordinates>
      </Point>
    </Placemark>
    <Placemark>
      <name>#22</name>
      <styleUrl>#icon-1608-0F9D58</styleUrl>
      <Point>
        <coordinates>
          -55.8685234,-27.3319777,0
        </coordinates>
      </Point>
    </Placemark>
    <Placemark>
      <name>#23</name>
      <styleUrl>#icon-1608-0F9D58</styleUrl>
      <Point>
        <coordinates>
          -55.8718676,-27.3389971,0
        </coordinates>
      </Point>
    </Placemark>
    <Placemark>
      <name>#24</name>
      <styleUrl>#icon-1608-0288D1</styleUrl>
      <Point>
        <coordinates>
          -55.8715235,-27.3346943,0
        </coordinates>
      </Point>
    </Placemark>
    <Placemark>
      <name>#25</name>
      <styleUrl>#icon-1608-0288D1</styleUrl>
      <Point>
        <coordinates>
          -55.8707618,-27.3347598,0
        </coordinates>
      </Point>
    </Placemark>
    <Placemark>
      <name>#26</name>
      <styleUrl>#icon-1608-0F9D58</styleUrl>
      <Point>
        <coordinates>
          -55.8660503,-27.3421952,0
        </coordinates>
      </Point>
    </Placemark>
    <Placemark>
      <name>#27</name>
      <styleUrl>#icon-1608-0F9D58</styleUrl>
      <Point>
        <coordinates>
          -55.8716093,-27.3268768,0
        </coordinates>
      </Point>
    </Placemark>
    <Placemark>
      <name>#28</name>
      <styleUrl>#icon-1608-0F9D58</styleUrl>
      <Point>
        <coordinates>
          -55.8720639,-27.3268697,0
        </coordinates>
      </Point>
    </Placemark>
    <Placemark>
      <name>#29</name>
      <styleUrl>#icon-1608-0F9D58</styleUrl>
      <Point>
        <coordinates>
          -55.8723336,-27.3268921,0
        </coordinates>
      </Point>
    </Placemark>
    <Placemark>
      <name>#30</name>
      <styleUrl>#icon-1608-0F9D58</styleUrl>
      <Point>
        <coordinates>
          -55.8732503,-27.3274844,0
        </coordinates>
      </Point>
    </Placemark>
    <Placemark>
      <name>#31</name>
      <styleUrl>#icon-1608-0F9D58</styleUrl>
      <Point>
        <coordinates>
          -55.8730519,-27.3278894,0
        </coordinates>
      </Point>
    </Placemark>
    <Placemark>
      <name>#32</name>
      <styleUrl>#icon-1608-0F9D58</styleUrl>
      <Point>
        <coordinates>
          -55.8729763,-27.3282815,0
        </coordinates>
      </Point>
    </Placemark>
    <Placemark>
      <name>#33</name>
      <styleUrl>#icon-1608-0F9D58</styleUrl>
      <Point>
        <coordinates>
          -55.8714997,-27.3281881,0
        </coordinates>
      </Point>
    </Placemark>
    <Placemark>
      <name>#34</name>
      <styleUrl>#icon-1608-0F9D58</styleUrl>
      <Point>
        <coordinates>
          -55.8719268,-27.3281968,0
        </coordinates>
      </Point>
    </Placemark>
    <Placemark>
      <name>#35</name>
      <styleUrl>#icon-1608-0F9D58</styleUrl>
      <Point>
        <coordinates>
          -55.8722191,-27.3282135,0
        </coordinates>
      </Point>
    </Placemark>
    <Placemark>
      <name>#36</name>
      <styleUrl>#icon-1608-0F9D58</styleUrl>
      <Point>
        <coordinates>
          -55.8729529,-27.3288103,0
        </coordinates>
      </Point>
    </Placemark>
    <Placemark>
      <name>#37</name>
      <styleUrl>#icon-1608-0F9D58</styleUrl>
      <Point>
        <coordinates>
          -55.8717397,-27.3295497,0
        </coordinates>
      </Point>
    </Placemark>
    <Placemark>
      <name>#38</name>
      <styleUrl>#icon-1608-0288D1</styleUrl>
      <Point>
        <coordinates>
          -55.8722514,-27.3295998,0
        </coordinates>
      </Point>
    </Placemark>
    <Placemark>
      <name>#39</name>
      <styleUrl>#icon-1608-0F9D58</styleUrl>
      <Point>
        <coordinates>
          -55.8727289,-27.3296333,0
        </coordinates>
      </Point>
    </Placemark>
    <Placemark>
      <name>#40</name>
      <styleUrl>#icon-1608-0F9D58</styleUrl>
      <Point>
        <coordinates>
          -55.8727906,-27.330279,0
        </coordinates>
      </Point>
    </Placemark>
    <Placemark>
      <name>#41</name>
      <styleUrl>#icon-1608-0F9D58</styleUrl>
      <Point>
        <coordinates>
          -55.8712081,-27.3308726,0
        </coordinates>
      </Point>
    </Placemark>
    <Placemark>
      <name>#42</name>
      <styleUrl>#icon-1608-0F9D58</styleUrl>
      <Point>
        <coordinates>
          -55.8718292,-27.330908,0
        </coordinates>
      </Point>
    </Placemark>
    <Placemark>
      <name>#43</name>
      <styleUrl>#icon-1608-0F9D58</styleUrl>
      <Point>
        <coordinates>
          -55.8723115,-27.3309426,0
        </coordinates>
      </Point>
    </Placemark>
    <Placemark>
      <name>#44</name>
      <styleUrl>#icon-1608-0F9D58</styleUrl>
      <Point>
        <coordinates>
          -55.8712365,-27.3305137,0
        </coordinates>
      </Point>
    </Placemark>
    <Placemark>
      <name>#45</name>
      <styleUrl>#icon-1608-0F9D58</styleUrl>
      <Point>
        <coordinates>
          -55.8712794,-27.3301158,0
        </coordinates>
      </Point>
    </Placemark>
    <Placemark>
      <name>#46</name>
      <styleUrl>#icon-1608-0F9D58</styleUrl>
      <Point>
        <coordinates>
          -55.8711259,-27.329478,0
        </coordinates>
      </Point>
    </Placemark>
    <Placemark>
      <name>#47</name>
      <styleUrl>#icon-1608-0F9D58</styleUrl>
      <Point>
        <coordinates>
          -55.87034,-27.3294315,0
        </coordinates>
      </Point>
    </Placemark>
    <Placemark>
      <name>#48</name>
      <styleUrl>#icon-1608-0F9D58</styleUrl>
      <Point>
        <coordinates>
          -55.870807,-27.3294587,0
        </coordinates>
      </Point>
    </Placemark>
    <Placemark>
      <name>#49</name>
      <styleUrl>#icon-1608-0288D1</styleUrl>
      <Point>
        <coordinates>
          -55.8713339,-27.3294104,0
        </coordinates>
      </Point>
    </Placemark>
    <Placemark>
      <name>#50</name>
      <styleUrl>#icon-1608-0F9D58</styleUrl>
      <Point>
        <coordinates>
          -55.871344,-27.3292367,0
        </coordinates>
      </Point>
    </Placemark>
    <Placemark>
      <name>#51</name>
      <styleUrl>#icon-1608-0288D1</styleUrl>
      <Point>
        <coordinates>
          -55.8713938,-27.328683,0
        </coordinates>
      </Point>
    </Placemark>
    <Placemark>
      <name>#52</name>
      <styleUrl>#icon-1608-0F9D58</styleUrl>
      <Point>
        <coordinates>
          -55.8714079,-27.3284532,0
        </coordinates>
      </Point>
    </Placemark>
    <Placemark>
      <name>#53</name>
      <styleUrl>#icon-1608-0F9D58</styleUrl>
      <Point>
        <coordinates>
          -55.8705477,-27.3280987,0
        </coordinates>
      </Point>
    </Placemark>
    <Placemark>
      <name>#54</name>
      <styleUrl>#icon-1608-0F9D58</styleUrl>
      <Point>
        <coordinates>
          -55.8709191,-27.3281222,0
        </coordinates>
      </Point>
    </Placemark>
    <Placemark>
      <name>#55</name>
      <styleUrl>#icon-1608-0F9D58</styleUrl>
      <Point>
        <coordinates>
          -55.8712558,-27.3281722,0
        </coordinates>
      </Point>
    </Placemark>
    <Placemark>
      <name>#56</name>
      <styleUrl>#icon-1608-0F9D58</styleUrl>
      <Point>
        <coordinates>
          -55.871488,-27.3279189,0
        </coordinates>
      </Point>
    </Placemark>
    <Placemark>
      <name>#57</name>
      <styleUrl>#icon-1608-0F9D58</styleUrl>
      <Point>
        <coordinates>
          -55.8715138,-27.3276093,0
        </coordinates>
      </Point>
    </Placemark>
    <Placemark>
      <name>#58</name>
      <styleUrl>#icon-1608-0F9D58</styleUrl>
      <Point>
        <coordinates>
          -55.8715563,-27.3271167,0
        </coordinates>
      </Point>
    </Placemark>
    <Placemark>
      <name>#59</name>
      <styleUrl>#icon-1608-0F9D58</styleUrl>
      <Point>
        <coordinates>
          -55.871385,-27.3268235,0
        </coordinates>
      </Point>
    </Placemark>
    <Placemark>
      <name>#60</name>
      <styleUrl>#icon-1608-0F9D58</styleUrl>
      <Point>
        <coordinates>
          -55.870382,-27.3265457,0
        </coordinates>
      </Point>
    </Placemark>
    <Placemark>
      <name>#61</name>
      <styleUrl>#icon-1608-0F9D58</styleUrl>
      <Point>
        <coordinates>
          -55.8718075,-27.3266591,0
        </coordinates>
      </Point>
    </Placemark>
    <Placemark>
      <name>#62</name>
      <styleUrl>#icon-1608-0F9D58</styleUrl>
      <Point>
        <coordinates>
          -55.8680278,-27.3321716,0
        </coordinates>
      </Point>
    </Placemark>
    <Placemark>
      <name>#63</name>
      <styleUrl>#icon-1608-0F9D58</styleUrl>
      <Point>
        <coordinates>
          -55.8643328,-27.3356144,0
        </coordinates>
      </Point>
    </Placemark>
    <Placemark>
      <name>#64</name>
      <styleUrl>#icon-1608-0F9D58</styleUrl>
      <Point>
        <coordinates>
          -55.8643287,-27.3354869,0
        </coordinates>
      </Point>
    </Placemark>
    <Placemark>
      <name>#65</name>
      <styleUrl>#icon-1608-0288D1</styleUrl>
      <Point>
        <coordinates>
          -55.8630639,-27.3366562,0
        </coordinates>
      </Point>
    </Placemark>
    <Placemark>
      <name>#66</name>
      <styleUrl>#icon-1608-0F9D58</styleUrl>
      <Point>
        <coordinates>
          -55.8628721,-27.3366234,0
        </coordinates>
      </Point>
    </Placemark>
    <Placemark>
      <name>#67</name>
      <styleUrl>#icon-1608-0F9D58</styleUrl>
      <Point>
        <coordinates>
          -55.8632105,-27.3407089,0
        </coordinates>
      </Point>
    </Placemark>
    <Placemark>
      <name>#68</name>
      <styleUrl>#icon-1608-0F9D58</styleUrl>
      <Point>
        <coordinates>
          -55.8697452,-27.3331701,0
        </coordinates>
      </Point>
    </Placemark>
    <Placemark>
      <name>#69</name>
      <styleUrl>#icon-1608-0F9D58</styleUrl>
      <Point>
        <coordinates>
          -55.8636074,-27.3407482,0
        </coordinates>
      </Point>
    </Placemark>
    <Placemark>
      <name>#70</name>
      <styleUrl>#icon-1608-0F9D58</styleUrl>
      <Point>
        <coordinates>
          -55.8725401,-27.3328784,0
        </coordinates>
      </Point>
    </Placemark>
    <Placemark>
      <name>#71</name>
      <styleUrl>#icon-1608-0F9D58</styleUrl>
      <Point>
        <coordinates>
          -55.8709846,-27.3332685,0
        </coordinates>
      </Point>
    </Placemark>
    <Placemark>
      <name>#72</name>
      <styleUrl>#icon-1608-0F9D58</styleUrl>
      <Point>
        <coordinates>
          -55.8689792,-27.3293144,0
        </coordinates>
      </Point>
    </Placemark>
    <Placemark>
      <name>#73</name>
      <styleUrl>#icon-1608-0F9D58</styleUrl>
      <Point>
        <coordinates>
          -55.8697986,-27.326492,0
        </coordinates>
      </Point>
    </Placemark>
    <Placemark>
      <name>#74</name>
      <styleUrl>#icon-1608-0F9D58</styleUrl>
      <Point>
        <coordinates>
          -55.8700355,-27.3277263,0
        </coordinates>
      </Point>
    </Placemark>
    <Placemark>
      <name>#75</name>
      <styleUrl>#icon-1608-0F9D58</styleUrl>
      <Point>
        <coordinates>
          -55.8688293,-27.3279423,0
        </coordinates>
      </Point>
    </Placemark>
    <Placemark>
      <name>#76</name>
      <styleUrl>#icon-1608-0F9D58</styleUrl>
      <Point>
        <coordinates>
          -55.8652194,-27.3276206,0
        </coordinates>
      </Point>
    </Placemark>
    <Placemark>
      <name>#77</name>
      <styleUrl>#icon-1608-0F9D58</styleUrl>
      <Point>
        <coordinates>
          -55.8608888,-27.3258939,0
        </coordinates>
      </Point>
    </Placemark>
    <Placemark>
      <name>#78</name>
      <styleUrl>#icon-1608-0F9D58</styleUrl>
      <Point>
        <coordinates>
          -55.8608716,-27.3265054,0
        </coordinates>
      </Point>
    </Placemark>
    <Placemark>
      <name>#79</name>
      <styleUrl>#icon-1608-0F9D58</styleUrl>
      <Point>
        <coordinates>
          -55.859804,-27.3271601,0
        </coordinates>
      </Point>
    </Placemark>
    <Placemark>
      <name>#80</name>
      <styleUrl>#icon-1608-0F9D58</styleUrl>
      <Point>
        <coordinates>
          -55.8596742,-27.3271193,0
        </coordinates>
      </Point>
    </Placemark>
    <Placemark>
      <name>#81</name>
      <styleUrl>#icon-1608-0F9D58</styleUrl>
      <Point>
        <coordinates>
          -55.8606303,-27.3285503,0
        </coordinates>
      </Point>
    </Placemark>
    <Placemark>
      <name>#82</name>
      <styleUrl>#icon-1608-0F9D58</styleUrl>
      <Point>
        <coordinates>
          -55.8604292,-27.3285289,0
        </coordinates>
      </Point>
    </Placemark>
    <Placemark>
      <name>#83</name>
      <styleUrl>#icon-1608-0F9D58</styleUrl>
      <Point>
        <coordinates>
          -55.8603487,-27.3285098,0
        </coordinates>
      </Point>
    </Placemark>
    <Placemark>
      <name>#84</name>
      <styleUrl>#icon-1608-0F9D58</styleUrl>
      <Point>
        <coordinates>
          -55.8606264,-27.3288067,0
        </coordinates>
      </Point>
    </Placemark>
    <Placemark>
      <name>#85</name>
      <styleUrl>#icon-1608-0F9D58</styleUrl>
      <Point>
        <coordinates>
          -55.8606077,-27.3289723,0
        </coordinates>
      </Point>
    </Placemark>
    <Placemark>
      <name>#86</name>
      <styleUrl>#icon-1608-0F9D58</styleUrl>
      <Point>
        <coordinates>
          -55.8682369,-27.3302516,0
        </coordinates>
      </Point>
    </Placemark>
    <Placemark>
      <name>#87</name>
      <styleUrl>#icon-1608-0F9D58</styleUrl>
      <Point>
        <coordinates>
          -55.8682939,-27.3298904,0
        </coordinates>
      </Point>
    </Placemark>
    <Placemark>
      <name>#88</name>
      <styleUrl>#icon-1608-0F9D58</styleUrl>
      <Point>
        <coordinates>
          -55.868326,-27.3294717,0
        </coordinates>
      </Point>
    </Placemark>
    <Placemark>
      <name>#89</name>
      <styleUrl>#icon-1608-0F9D58</styleUrl>
      <Point>
        <coordinates>
          -55.868327,-27.32925,0
        </coordinates>
      </Point>
    </Placemark>
    <Placemark>
      <name>#90</name>
      <styleUrl>#icon-1608-0F9D58</styleUrl>
      <Point>
        <coordinates>
          -55.8681919,-27.3292428,0
        </coordinates>
      </Point>
    </Placemark>
    <Placemark>
      <name>#91</name>
      <styleUrl>#icon-1608-0F9D58</styleUrl>
      <Point>
        <coordinates>
          -55.8676251,-27.3291955,0
        </coordinates>
      </Point>
    </Placemark>
    <Placemark>
      <name>#92</name>
      <styleUrl>#icon-1608-0F9D58</styleUrl>
      <Point>
        <coordinates>
          -55.8683688,-27.3288458,0
        </coordinates>
      </Point>
    </Placemark>
    <Placemark>
      <name>#93</name>
      <styleUrl>#icon-1608-0F9D58</styleUrl>
      <Point>
        <coordinates>
          -55.8684748,-27.3279049,0
        </coordinates>
      </Point>
    </Placemark>
    <Placemark>
      <name>#94</name>
      <styleUrl>#icon-1608-0F9D58</styleUrl>
      <Point>
        <coordinates>
          -55.8681046,-27.3278667,0
        </coordinates>
      </Point>
    </Placemark>
    <Placemark>
      <name>#95</name>
      <styleUrl>#icon-1608-0F9D58</styleUrl>
      <Point>
        <coordinates>
          -55.8676808,-27.3278406,0
        </coordinates>
      </Point>
    </Placemark>
    <Placemark>
      <name>#96</name>
      <styleUrl>#icon-1608-0F9D58</styleUrl>
      <Point>
        <coordinates>
          -55.8672545,-27.3277916,0
        </coordinates>
      </Point>
    </Placemark>
    <Placemark>
      <name>#97</name>
      <styleUrl>#icon-1608-0F9D58</styleUrl>
      <Point>
        <coordinates>
          -55.8685032,-27.3276531,0
        </coordinates>
      </Point>
    </Placemark>
    <Placemark>
      <name>#98</name>
      <styleUrl>#icon-1608-0F9D58</styleUrl>
      <Point>
        <coordinates>
          -55.8685729,-27.3270318,0
        </coordinates>
      </Point>
    </Placemark>
    <Placemark>
      <name>#99</name>
      <styleUrl>#icon-1608-0F9D58</styleUrl>
      <Point>
        <coordinates>
          -55.8686178,-27.3266225,0
        </coordinates>
      </Point>
    </Placemark>
    <Placemark>
      <name>#100</name>
      <styleUrl>#icon-1608-0F9D58</styleUrl>
      <Point>
        <coordinates>
          -55.8685125,-27.3265674,0
        </coordinates>
      </Point>
    </Placemark>
    <Placemark>
      <name>#101</name>
      <styleUrl>#icon-1608-0F9D58</styleUrl>
      <Point>
        <coordinates>
          -55.8684682,-27.3263828,0
        </coordinates>
      </Point>
    </Placemark>
    <Placemark>
      <name>#102</name>
      <styleUrl>#icon-1608-0F9D58</styleUrl>
      <Point>
        <coordinates>
          -55.8679344,-27.3263458,0
        </coordinates>
      </Point>
    </Placemark>
    <Placemark>
      <name>#103</name>
      <styleUrl>#icon-1608-0F9D58</styleUrl>
      <Point>
        <coordinates>
          -55.8672134,-27.3262769,0
        </coordinates>
      </Point>
    </Placemark>
    <Placemark>
      <name>#104</name>
      <styleUrl>#icon-1608-0288D1</styleUrl>
      <Point>
        <coordinates>
          -55.8673341,-27.3264628,0
        </coordinates>
      </Point>
    </Placemark>
    <Placemark>
      <name>#105</name>
      <styleUrl>#icon-1608-0288D1</styleUrl>
      <Point>
        <coordinates>
          -55.8675983,-27.3264854,0
        </coordinates>
      </Point>
    </Placemark>
    <Placemark>
      <name>#106</name>
      <styleUrl>#icon-1608-0F9D58</styleUrl>
      <Point>
        <coordinates>
          -55.8680288,-27.3265152,0
        </coordinates>
      </Point>
    </Placemark>
    <Placemark>
      <name>#107</name>
      <styleUrl>#icon-1608-0F9D58</styleUrl>
      <Point>
        <coordinates>
          -55.8648858,-27.330288,0
        </coordinates>
      </Point>
    </Placemark>
    <Placemark>
      <name>#108</name>
      <styleUrl>#icon-1608-0F9D58</styleUrl>
      <Point>
        <coordinates>
          -55.8649488,-27.3299163,0
        </coordinates>
      </Point>
    </Placemark>
    <Placemark>
      <name>#109</name>
      <styleUrl>#icon-1608-0288D1</styleUrl>
      <Point>
        <coordinates>
          -55.8650025,-27.329591,0
        </coordinates>
      </Point>
    </Placemark>
    <Placemark>
      <name>#110</name>
      <styleUrl>#icon-1608-0F9D58</styleUrl>
      <Point>
        <coordinates>
          -55.8650642,-27.3289872,0
        </coordinates>
      </Point>
    </Placemark>
    <Placemark>
      <name>#111</name>
      <styleUrl>#icon-1608-0F9D58</styleUrl>
      <Point>
        <coordinates>
          -55.8649161,-27.3289359,0
        </coordinates>
      </Point>
    </Placemark>
    <Placemark>
      <name>#112</name>
      <styleUrl>#icon-1608-0F9D58</styleUrl>
      <Point>
        <coordinates>
          -55.8650482,-27.3286639,0
        </coordinates>
      </Point>
    </Placemark>
    <Placemark>
      <name>#113</name>
      <styleUrl>#icon-1608-0F9D58</styleUrl>
      <Point>
        <coordinates>
          -55.8651222,-27.3283043,0
        </coordinates>
      </Point>
    </Placemark>
    <Placemark>
      <name>#114</name>
      <styleUrl>#icon-1608-0F9D58</styleUrl>
      <Point>
        <coordinates>
          -55.865103,-27.3275946,0
        </coordinates>
      </Point>
    </Placemark>
    <Placemark>
      <name>#115</name>
      <styleUrl>#icon-1608-0F9D58</styleUrl>
      <Point>
        <coordinates>
          -55.8645558,-27.3275577,0
        </coordinates>
      </Point>
    </Placemark>
    <Placemark>
      <name>#116</name>
      <styleUrl>#icon-1608-0F9D58</styleUrl>
      <Point>
        <coordinates>
          -55.8642621,-27.3275339,0
        </coordinates>
      </Point>
    </Placemark>
    <Placemark>
      <name>#117</name>
      <styleUrl>#icon-1608-0F9D58</styleUrl>
      <Point>
        <coordinates>
          -55.865213,-27.3274076,0
        </coordinates>
      </Point>
    </Placemark>
    <Placemark>
      <name>#118</name>
      <styleUrl>#icon-1608-0F9D58</styleUrl>
      <Point>
        <coordinates>
          -55.8653647,-27.3263611,0
        </coordinates>
      </Point>
    </Placemark>
    <Placemark>
      <name>#119</name>
      <styleUrl>#icon-1608-0288D1</styleUrl>
      <Point>
        <coordinates>
          -55.8649888,-27.3262679,0
        </coordinates>
      </Point>
    </Placemark>
    <Placemark>
      <name>#120</name>
      <styleUrl>#icon-1608-0F9D58</styleUrl>
      <Point>
        <coordinates>
          -55.8644564,-27.3262154,0
        </coordinates>
      </Point>
    </Placemark>
    <Placemark>
      <name>#121</name>
      <styleUrl>#icon-1608-0F9D58</styleUrl>
      <Point>
        <coordinates>
          -55.8641141,-27.3261869,0
        </coordinates>
      </Point>
    </Placemark>
    <Placemark>
      <name>#122</name>
      <styleUrl>#icon-1608-0F9D58</styleUrl>
      <Point>
        <coordinates>
          -55.8638848,-27.3262071,0
        </coordinates>
      </Point>
    </Placemark>
    <Placemark>
      <name>#123</name>
      <styleUrl>#icon-1608-0288D1</styleUrl>
      <Point>
        <coordinates>
          -55.8638781,-27.3264418,0
        </coordinates>
      </Point>
    </Placemark>
    <Placemark>
      <name>#124</name>
      <styleUrl>#icon-1608-0F9D58</styleUrl>
      <Point>
        <coordinates>
          -55.8637627,-27.3273187,0
        </coordinates>
      </Point>
    </Placemark>
    <Placemark>
      <name>#125</name>
      <styleUrl>#icon-1608-0F9D58</styleUrl>
      <Point>
        <coordinates>
          -55.8635749,-27.3288187,0
        </coordinates>
      </Point>
    </Placemark>
    <Placemark>
      <name>#126</name>
      <styleUrl>#icon-1608-0F9D58</styleUrl>
      <Point>
        <coordinates>
          -55.8595909,-27.3258298,0
        </coordinates>
      </Point>
    </Placemark>
    <Placemark>
      <name>#127</name>
      <styleUrl>#icon-1608-0F9D58</styleUrl>
      <Point>
        <coordinates>
          -55.8594965,-27.3271175,0
        </coordinates>
      </Point>
    </Placemark>
    <Placemark>
      <name>#128</name>
      <styleUrl>#icon-1608-0F9D58</styleUrl>
      <Point>
        <coordinates>
          -55.859357,-27.3282875,0
        </coordinates>
      </Point>
    </Placemark>
    <Placemark>
      <name>#130</name>
      <styleUrl>#icon-1608-0F9D58</styleUrl>
      <Point>
        <coordinates>
          -55.8583491,-27.3376308,0
        </coordinates>
      </Point>
    </Placemark>
    <Placemark>
      <name>#131</name>
      <styleUrl>#icon-1608-0F9D58</styleUrl>
      <Point>
        <coordinates>
          -55.8591921,-27.3300194,0
        </coordinates>
      </Point>
    </Placemark>
    <Placemark>
      <name>#132</name>
      <styleUrl>#icon-1608-0F9D58</styleUrl>
      <Point>
        <coordinates>
          -55.858974,-27.3319636,0
        </coordinates>
      </Point>
    </Placemark>
    <Placemark>
      <name>#133</name>
      <styleUrl>#icon-1608-0288D1</styleUrl>
      <Point>
        <coordinates>
          -55.8589579,-27.3320953,0
        </coordinates>
      </Point>
    </Placemark>
    <Placemark>
      <name>#134</name>
      <styleUrl>#icon-1608-0F9D58</styleUrl>
      <Point>
        <coordinates>
          -55.8586595,-27.3347796,0
        </coordinates>
      </Point>
    </Placemark>
    <Placemark>
      <name>#135</name>
      <styleUrl>#icon-1608-0F9D58</styleUrl>
      <Point>
        <coordinates>
          -55.8588365,-27.3349511,0
        </coordinates>
      </Point>
    </Placemark>
    <Placemark>
      <name>#136</name>
      <styleUrl>#icon-1608-0288D1</styleUrl>
      <Point>
        <coordinates>
          -55.8585522,-27.3358708,0
        </coordinates>
      </Point>
    </Placemark>
    <Placemark>
      <name>#137</name>
      <styleUrl>#icon-1608-0F9D58</styleUrl>
      <Point>
        <coordinates>
          -55.8584878,-27.3364046,0
        </coordinates>
      </Point>
    </Placemark>
    <Placemark>
      <name>#138</name>
      <styleUrl>#icon-1608-0F9D58</styleUrl>
      <Point>
        <coordinates>
          -55.8584556,-27.3365999,0
        </coordinates>
      </Point>
    </Placemark>
    <Placemark>
      <name>#139</name>
      <styleUrl>#icon-1608-0F9D58</styleUrl>
      <Point>
        <coordinates>
          -55.8584288,-27.3368477,0
        </coordinates>
      </Point>
    </Placemark>
    <Placemark>
      <name>#140</name>
      <styleUrl>#icon-1608-0288D1</styleUrl>
      <Point>
        <coordinates>
          -55.8602366,-27.3298412,0
        </coordinates>
      </Point>
    </Placemark>
    <Placemark>
      <name>#141</name>
      <styleUrl>#icon-1608-0F9D58</styleUrl>
      <Point>
        <coordinates>
          -55.8598143,-27.3297721,0
        </coordinates>
      </Point>
    </Placemark>
    <Placemark>
      <name>#142</name>
      <styleUrl>#icon-1608-0F9D58</styleUrl>
      <Point>
        <coordinates>
          -55.8596077,-27.3297912,0
        </coordinates>
      </Point>
    </Placemark>
    <Placemark>
      <name>#143</name>
      <styleUrl>#icon-1608-0F9D58</styleUrl>
      <Point>
        <coordinates>
          -55.8602126,-27.331217,0
        </coordinates>
      </Point>
    </Placemark>
    <Placemark>
      <name>#144</name>
      <styleUrl>#icon-1608-0288D1</styleUrl>
      <Point>
        <coordinates>
          -55.8603836,-27.3312413,0
        </coordinates>
      </Point>
    </Placemark>
    <Placemark>
      <name>#145</name>
      <styleUrl>#icon-1608-0F9D58</styleUrl>
      <Point>
        <coordinates>
          -55.8603545,-27.3312593,0
        </coordinates>
      </Point>
    </Placemark>
    <Placemark>
      <name>#146</name>
      <styleUrl>#icon-1608-0F9D58</styleUrl>
      <Point>
        <coordinates>
          -55.8601376,-27.3312107,0
        </coordinates>
      </Point>
    </Placemark>
    <Placemark>
      <name>#147</name>
      <styleUrl>#icon-1608-0F9D58</styleUrl>
      <Point>
        <coordinates>
          -55.8595894,-27.3323074,0
        </coordinates>
      </Point>
    </Placemark>
    <Placemark>
      <name>#148</name>
      <styleUrl>#icon-1608-0F9D58</styleUrl>
      <Point>
        <coordinates>
          -55.8591307,-27.3322645,0
        </coordinates>
      </Point>
    </Placemark>
    <Placemark>
      <name>#149</name>
      <styleUrl>#icon-1608-0F9D58</styleUrl>
      <Point>
        <coordinates>
          -55.8591978,-27.3322478,0
        </coordinates>
      </Point>
    </Placemark>
    <Placemark>
      <name>#150</name>
      <styleUrl>#icon-1608-0288D1</styleUrl>
      <Point>
        <coordinates>
          -55.869291,-27.3345,0
        </coordinates>
      </Point>
    </Placemark>
    <Placemark>
      <name>#151</name>
      <styleUrl>#icon-1608-0F9D58</styleUrl>
      <Point>
        <coordinates>
          -55.8693017,-27.3348288,0
        </coordinates>
      </Point>
    </Placemark>
    <Placemark>
      <name>#152</name>
      <styleUrl>#icon-1608-0F9D58</styleUrl>
      <Point>
        <coordinates>
          -55.8692105,-27.3351553,0
        </coordinates>
      </Point>
    </Placemark>
    <Placemark>
      <name>#153</name>
      <styleUrl>#icon-1608-0F9D58</styleUrl>
      <Point>
        <coordinates>
          -55.8691711,-27.3358481,0
        </coordinates>
      </Point>
    </Placemark>
    <Placemark>
      <name>#154</name>
      <styleUrl>#icon-1608-0F9D58</styleUrl>
      <Point>
        <coordinates>
          -55.8696999,-27.3358905,0
        </coordinates>
      </Point>
    </Placemark>
    <Placemark>
      <name>#155</name>
      <styleUrl>#icon-1608-0F9D58</styleUrl>
      <Point>
        <coordinates>
          -55.8601441,-27.3325504,0
        </coordinates>
      </Point>
    </Placemark>
    <Placemark>
      <name>#156</name>
      <styleUrl>#icon-1608-0F9D58</styleUrl>
      <Point>
        <coordinates>
          -55.8689956,-27.3358184,0
        </coordinates>
      </Point>
    </Placemark>
    <Placemark>
      <name>#157</name>
      <styleUrl>#icon-1608-0F9D58</styleUrl>
      <Point>
        <coordinates>
          -55.8684573,-27.3357923,0
        </coordinates>
      </Point>
    </Placemark>
    <Placemark>
      <name>#158</name>
      <styleUrl>#icon-1608-0F9D58</styleUrl>
      <Point>
        <coordinates>
          -55.8601512,-27.3330544,0
        </coordinates>
      </Point>
    </Placemark>
    <Placemark>
      <name>#159</name>
      <styleUrl>#icon-1608-0F9D58</styleUrl>
      <Point>
        <coordinates>
          -55.867961,-27.3357459,0
        </coordinates>
      </Point>
    </Placemark>
    <Placemark>
      <name>#160</name>
      <styleUrl>#icon-1608-0F9D58</styleUrl>
      <Point>
        <coordinates>
          -55.8600546,-27.3333046,0
        </coordinates>
      </Point>
    </Placemark>
    <Placemark>
      <name>#161</name>
      <styleUrl>#icon-1608-0F9D58</styleUrl>
      <Point>
        <coordinates>
          -55.8676711,-27.3357033,0
        </coordinates>
      </Point>
    </Placemark>
    <Placemark>
      <name>#162</name>
      <styleUrl>#icon-1608-0F9D58</styleUrl>
      <Point>
        <coordinates>
          -55.8673406,-27.3356747,0
        </coordinates>
      </Point>
    </Placemark>
    <Placemark>
      <name>#163</name>
      <styleUrl>#icon-1608-0F9D58</styleUrl>
      <Point>
        <coordinates>
          -55.8660274,-27.336905,0
        </coordinates>
      </Point>
    </Placemark>
    <Placemark>
      <name>#164</name>
      <styleUrl>#icon-1608-0F9D58</styleUrl>
      <Point>
        <coordinates>
          -55.8675144,-27.3370514,0
        </coordinates>
      </Point>
    </Placemark>
    <Placemark>
      <name>#165</name>
      <styleUrl>#icon-1608-0F9D58</styleUrl>
      <Point>
        <coordinates>
          -55.8676664,-27.337065,0
        </coordinates>
      </Point>
    </Placemark>
    <Placemark>
      <name>#166</name>
      <styleUrl>#icon-1608-0F9D58</styleUrl>
      <Point>
        <coordinates>
          -55.8681816,-27.3371169,0
        </coordinates>
      </Point>
    </Placemark>
    <Placemark>
      <name>#167</name>
      <styleUrl>#icon-1608-0F9D58</styleUrl>
      <Point>
        <coordinates>
          -55.8690069,-27.3372087,0
        </coordinates>
      </Point>
    </Placemark>
    <Placemark>
      <name>#168</name>
      <styleUrl>#icon-1608-0F9D58</styleUrl>
      <Point>
        <coordinates>
          -55.8595561,-27.3336381,0
        </coordinates>
      </Point>
    </Placemark>
    <Placemark>
      <name>#169</name>
      <styleUrl>#icon-1608-0F9D58</styleUrl>
      <Point>
        <coordinates>
          -55.8692278,-27.3372258,0
        </coordinates>
      </Point>
    </Placemark>
    <Placemark>
      <name>#170</name>
      <styleUrl>#icon-1608-0F9D58</styleUrl>
      <Point>
        <coordinates>
          -55.8587274,-27.3362561,0
        </coordinates>
      </Point>
    </Placemark>
    <Placemark>
      <name>#171</name>
      <styleUrl>#icon-1608-0F9D58</styleUrl>
      <Point>
        <coordinates>
          -55.8689795,-27.3374613,0
        </coordinates>
      </Point>
    </Placemark>
    <Placemark>
      <name>#172</name>
      <styleUrl>#icon-1608-0288D1</styleUrl>
      <Point>
        <coordinates>
          -55.8688628,-27.3385121,0
        </coordinates>
      </Point>
    </Placemark>
    <Placemark>
      <name>#173</name>
      <styleUrl>#icon-1608-0F9D58</styleUrl>
      <Point>
        <coordinates>
          -55.8596997,-27.3370435,0
        </coordinates>
      </Point>
    </Placemark>
    <Placemark>
      <name>#174</name>
      <styleUrl>#icon-1608-0F9D58</styleUrl>
      <Point>
        <coordinates>
          -55.8687679,-27.3384869,0
        </coordinates>
      </Point>
    </Placemark>
    <Placemark>
      <name>#175</name>
      <styleUrl>#icon-1608-0F9D58</styleUrl>
      <Point>
        <coordinates>
          -55.859701,-27.3368017,0
        </coordinates>
      </Point>
    </Placemark>
    <Placemark>
      <name>#176</name>
      <styleUrl>#icon-1608-0F9D58</styleUrl>
      <Point>
        <coordinates>
          -55.8597882,-27.336343,0
        </coordinates>
      </Point>
    </Placemark>
    <Placemark>
      <name>#177</name>
      <styleUrl>#icon-1608-0F9D58</styleUrl>
      <Point>
        <coordinates>
          -55.8701055,-27.3399528,0
        </coordinates>
      </Point>
    </Placemark>
    <Placemark>
      <name>#178</name>
      <styleUrl>#icon-1608-0F9D58</styleUrl>
      <Point>
        <coordinates>
          -55.8692896,-27.3398987,0
        </coordinates>
      </Point>
    </Placemark>
    <Placemark>
      <name>#179</name>
      <styleUrl>#icon-1608-0F9D58</styleUrl>
      <Point>
        <coordinates>
          -55.8687156,-27.339851,0
        </coordinates>
      </Point>
    </Placemark>
    <Placemark>
      <name>#180</name>
      <styleUrl>#icon-1608-0F9D58</styleUrl>
      <Point>
        <coordinates>
          -55.8599478,-27.3348282,0
        </coordinates>
      </Point>
    </Placemark>
    <Placemark>
      <name>#181</name>
      <styleUrl>#icon-1608-0F9D58</styleUrl>
      <Point>
        <coordinates>
          -55.868684,-27.340228,0
        </coordinates>
      </Point>
    </Placemark>
    <Placemark>
      <name>#182</name>
      <styleUrl>#icon-1608-0F9D58</styleUrl>
      <Point>
        <coordinates>
          -55.868625,-27.3406842,0
        </coordinates>
      </Point>
    </Placemark>
    <Placemark>
      <name>#183</name>
      <styleUrl>#icon-1608-0288D1</styleUrl>
      <Point>
        <coordinates>
          -55.8599827,-27.3343373,0
        </coordinates>
      </Point>
    </Placemark>
    <Placemark>
      <name>#184</name>
      <styleUrl>#icon-1608-0F9D58</styleUrl>
      <Point>
        <coordinates>
          -55.868587,-27.3410385,0
        </coordinates>
      </Point>
    </Placemark>
    <Placemark>
      <name>#185</name>
      <styleUrl>#icon-1608-0F9D58</styleUrl>
      <Point>
        <coordinates>
          -55.8671043,-27.3410725,0
        </coordinates>
      </Point>
    </Placemark>
    <Placemark>
      <name>#186</name>
      <styleUrl>#icon-1608-0F9D58</styleUrl>
      <Point>
        <coordinates>
          -55.8671965,-27.3402094,0
        </coordinates>
      </Point>
    </Placemark>
    <Placemark>
      <name>#187</name>
      <styleUrl>#icon-1608-0F9D58</styleUrl>
      <Point>
        <coordinates>
          -55.8672297,-27.3397135,0
        </coordinates>
      </Point>
    </Placemark>
    <Placemark>
      <name>#188</name>
      <styleUrl>#icon-1608-0F9D58</styleUrl>
      <Point>
        <coordinates>
          -55.8596405,-27.3377199,0
        </coordinates>
      </Point>
    </Placemark>
    <Placemark>
      <name>#189</name>
      <styleUrl>#icon-1608-0288D1</styleUrl>
      <Point>
        <coordinates>
          -55.8672877,-27.3392364,0
        </coordinates>
      </Point>
    </Placemark>
    <Placemark>
      <name>#190</name>
      <styleUrl>#icon-1608-0F9D58</styleUrl>
      <Point>
        <coordinates>
          -55.8673411,-27.3387289,0
        </coordinates>
      </Point>
    </Placemark>
    <Placemark>
      <name>#191</name>
      <styleUrl>#icon-1608-0288D1</styleUrl>
      <Point>
        <coordinates>
          -55.8673734,-27.338374,0
        </coordinates>
      </Point>
    </Placemark>
    <Placemark>
      <name>#192</name>
      <styleUrl>#icon-1608-0F9D58</styleUrl>
      <Point>
        <coordinates>
          -55.8626921,-27.3366402,0
        </coordinates>
      </Point>
    </Placemark>
    <Placemark>
      <name>#193</name>
      <styleUrl>#icon-1608-0F9D58</styleUrl>
      <Point>
        <coordinates>
          -55.8674505,-27.3377031,0
        </coordinates>
      </Point>
    </Placemark>
    <Placemark>
      <name>#194</name>
      <styleUrl>#icon-1608-0F9D58</styleUrl>
      <Point>
        <coordinates>
          -55.8676989,-27.3383949,0
        </coordinates>
      </Point>
    </Placemark>
    <Placemark>
      <name>#195</name>
      <styleUrl>#icon-1608-0F9D58</styleUrl>
      <Point>
        <coordinates>
          -55.8668606,-27.338346,0
        </coordinates>
      </Point>
    </Placemark>
    <Placemark>
      <name>#196</name>
      <styleUrl>#icon-1608-0F9D58</styleUrl>
      <Point>
        <coordinates>
          -55.8663847,-27.3382888,0
        </coordinates>
      </Point>
    </Placemark>
    <Placemark>
      <name>#197</name>
      <styleUrl>#icon-1608-0F9D58</styleUrl>
      <Point>
        <coordinates>
          -55.8658023,-27.3387941,0
        </coordinates>
      </Point>
    </Placemark>
    <Placemark>
      <name>#198</name>
      <styleUrl>#icon-1608-0F9D58</styleUrl>
      <Point>
        <coordinates>
          -55.8656604,-27.3395873,0
        </coordinates>
      </Point>
    </Placemark>
    <Placemark>
      <name>#199</name>
      <styleUrl>#icon-1608-0F9D58</styleUrl>
      <Point>
        <coordinates>
          -55.865722,-27.3396004,0
        </coordinates>
      </Point>
    </Placemark>
    <Placemark>
      <name>#200</name>
      <styleUrl>#icon-1608-0F9D58</styleUrl>
      <Point>
        <coordinates>
          -55.8660402,-27.3396399,0
        </coordinates>
      </Point>
    </Placemark>
    <Placemark>
      <name>#201</name>
      <styleUrl>#icon-1608-0F9D58</styleUrl>
      <Point>
        <coordinates>
          -55.8648226,-27.3395308,0
        </coordinates>
      </Point>
    </Placemark>
    <Placemark>
      <name>#202</name>
      <styleUrl>#icon-1608-0F9D58</styleUrl>
      <Point>
        <coordinates>
          -55.8656574,-27.3401434,0
        </coordinates>
      </Point>
    </Placemark>
    <Placemark>
      <name>#203</name>
      <styleUrl>#icon-1608-0F9D58</styleUrl>
      <Point>
        <coordinates>
          -55.8655812,-27.3409202,0
        </coordinates>
      </Point>
    </Placemark>
    <Placemark>
      <name>#204</name>
      <styleUrl>#icon-1608-0F9D58</styleUrl>
      <Point>
        <coordinates>
          -55.862315,-27.3269537,0
        </coordinates>
      </Point>
    </Placemark>
    <Placemark>
      <name>#205</name>
      <styleUrl>#icon-1608-0F9D58</styleUrl>
      <Point>
        <coordinates>
          -55.8622912,-27.3273465,0
        </coordinates>
      </Point>
    </Placemark>
    <Placemark>
      <name>#206</name>
      <styleUrl>#icon-1608-0F9D58</styleUrl>
      <Point>
        <coordinates>
          -55.8621816,-27.3273742,0
        </coordinates>
      </Point>
    </Placemark>
    <Placemark>
      <name>#207</name>
      <styleUrl>#icon-1608-0288D1</styleUrl>
      <Point>
        <coordinates>
          -55.8616654,-27.3273158,0
        </coordinates>
      </Point>
    </Placemark>
    <Placemark>
      <name>#208</name>
      <styleUrl>#icon-1608-0F9D58</styleUrl>
      <Point>
        <coordinates>
          -55.8608463,-27.327242,0
        </coordinates>
      </Point>
    </Placemark>
    <Placemark>
      <name>#209</name>
      <styleUrl>#icon-1608-0F9D58</styleUrl>
      <Point>
        <coordinates>
          -55.8621326,-27.3286845,0
        </coordinates>
      </Point>
    </Placemark>
    <Placemark>
      <name>#210</name>
      <styleUrl>#icon-1608-0F9D58</styleUrl>
      <Point>
        <coordinates>
          -55.8613409,-27.3286157,0
        </coordinates>
      </Point>
    </Placemark>
    <Placemark>
      <name>#211</name>
      <styleUrl>#icon-1608-0F9D58</styleUrl>
      <Point>
        <coordinates>
          -55.8620416,-27.3294001,0
        </coordinates>
      </Point>
    </Placemark>
    <Placemark>
      <name>#212</name>
      <styleUrl>#icon-1608-0F9D58</styleUrl>
      <Point>
        <coordinates>
          -55.8619965,-27.3297582,0
        </coordinates>
      </Point>
    </Placemark>
    <Placemark>
      <name>#213</name>
      <styleUrl>#icon-1608-0288D1</styleUrl>
      <Point>
        <coordinates>
          -55.8619691,-27.3300239,0
        </coordinates>
      </Point>
    </Placemark>
    <Placemark>
      <name>#214</name>
      <styleUrl>#icon-1608-0F9D58</styleUrl>
      <Point>
        <coordinates>
          -55.8612731,-27.3299322,0
        </coordinates>
      </Point>
    </Placemark>
    <Placemark>
      <name>#215</name>
      <styleUrl>#icon-1608-0F9D58</styleUrl>
      <Point>
        <coordinates>
          -55.8615341,-27.3337899,0
        </coordinates>
      </Point>
    </Placemark>
    <Placemark>
      <name>#216</name>
      <styleUrl>#icon-1608-0F9D58</styleUrl>
      <Point>
        <coordinates>
          -55.8614859,-27.3324476,0
        </coordinates>
      </Point>
    </Placemark>
    <Placemark>
      <name>#217</name>
      <styleUrl>#icon-1608-0F9D58</styleUrl>
      <Point>
        <coordinates>
          -55.8610513,-27.3324071,0
        </coordinates>
      </Point>
    </Placemark>
    <Placemark>
      <name>#218</name>
      <styleUrl>#icon-1608-0F9D58</styleUrl>
      <Point>
        <coordinates>
          -55.8606168,-27.3323857,0
        </coordinates>
      </Point>
    </Placemark>
    <Placemark>
      <name>#219</name>
      <styleUrl>#icon-1608-0288D1</styleUrl>
      <Point>
        <coordinates>
          -55.8617318,-27.3313776,0
        </coordinates>
      </Point>
    </Placemark>
    <Placemark>
      <name>#220</name>
      <styleUrl>#icon-1608-0F9D58</styleUrl>
      <Point>
        <coordinates>
          -55.8608785,-27.3313181,0
        </coordinates>
      </Point>
    </Placemark>
    <Placemark>
      <name>#221</name>
      <styleUrl>#icon-1608-0F9D58</styleUrl>
      <Point>
        <coordinates>
          -55.8614392,-27.3346372,0
        </coordinates>
      </Point>
    </Placemark>
    <Placemark>
      <name>#222</name>
      <styleUrl>#icon-1608-0288D1</styleUrl>
      <Point>
        <coordinates>
          -55.861401,-27.3351405,0
        </coordinates>
      </Point>
    </Placemark>
    <Placemark>
      <name>#223</name>
      <styleUrl>#icon-1608-0F9D58</styleUrl>
      <Point>
        <coordinates>
          -55.8613715,-27.3351846,0
        </coordinates>
      </Point>
    </Placemark>
    <Placemark>
      <name>#224</name>
      <styleUrl>#icon-1608-0F9D58</styleUrl>
      <Point>
        <coordinates>
          -55.8606355,-27.3439877,0
        </coordinates>
      </Point>
    </Placemark>
    <Placemark>
      <name>#225</name>
      <styleUrl>#icon-1608-0288D1</styleUrl>
      <Point>
        <coordinates>
          -55.8631396,-27.3428716,0
        </coordinates>
      </Point>
    </Placemark>
    <Placemark>
      <name>#226</name>
      <styleUrl>#icon-1608-0F9D58</styleUrl>
      <Point>
        <coordinates>
          -55.8645488,-27.3424356,0
        </coordinates>
      </Point>
    </Placemark>
    <Placemark>
      <name>#227</name>
      <styleUrl>#icon-1608-0F9D58</styleUrl>
      <Point>
        <coordinates>
          -55.8667909,-27.3277384,0
        </coordinates>
      </Point>
    </Placemark>
    <Placemark>
      <name>#228</name>
      <styleUrl>#icon-1608-0F9D58</styleUrl>
      <Point>
        <coordinates>
          -55.8670833,-27.3273259,0
        </coordinates>
      </Point>
    </Placemark>
    <Placemark>
      <name>#230</name>
      <styleUrl>#icon-1608-0F9D58</styleUrl>
      <Point>
        <coordinates>
          -55.8662544,-27.326386,0
        </coordinates>
      </Point>
    </Placemark>
    <Placemark>
      <name>#231</name>
      <styleUrl>#icon-1608-0288D1</styleUrl>
      <Point>
        <coordinates>
          -55.8653438,-27.3276364,0
        </coordinates>
      </Point>
    </Placemark>
    <Placemark>
      <name>#232</name>
      <styleUrl>#icon-1608-0F9D58</styleUrl>
      <Point>
        <coordinates>
          -55.8660966,-27.3290836,0
        </coordinates>
      </Point>
    </Placemark>
    <Placemark>
      <name>#233</name>
      <styleUrl>#icon-1608-0F9D58</styleUrl>
      <Point>
        <coordinates>
          -55.8636781,-27.3277287,0
        </coordinates>
      </Point>
    </Placemark>
    <Placemark>
      <name>#234</name>
      <styleUrl>#icon-1608-0F9D58</styleUrl>
      <Point>
        <coordinates>
          -55.8636379,-27.3286306,0
        </coordinates>
      </Point>
    </Placemark>
    <Placemark>
      <name>#235</name>
      <styleUrl>#icon-1608-0F9D58</styleUrl>
      <Point>
        <coordinates>
          -55.8625012,-27.3300779,0
        </coordinates>
      </Point>
    </Placemark>
    <Placemark>
      <name>#236</name>
      <styleUrl>#icon-1608-0F9D58</styleUrl>
      <Point>
        <coordinates>
          -55.8624624,-27.3314848,0
        </coordinates>
      </Point>
    </Placemark>
    <Placemark>
      <name>#238</name>
      <styleUrl>#icon-1608-0F9D58</styleUrl>
      <Point>
        <coordinates>
          -55.8622754,-27.3338887,0
        </coordinates>
      </Point>
    </Placemark>
    <Placemark>
      <name>#237</name>
      <styleUrl>#icon-1608-0F9D58</styleUrl>
      <Point>
        <coordinates>
          -55.8647007,-27.3381493,0
        </coordinates>
      </Point>
    </Placemark>
    <Placemark>
      <name>#239</name>
      <styleUrl>#icon-1608-0F9D58</styleUrl>
      <Point>
        <coordinates>
          -55.8636431,-27.3282441,0
        </coordinates>
      </Point>
    </Placemark>
    <Placemark>
      <name>#240</name>
      <styleUrl>#icon-1608-0F9D58</styleUrl>
      <Point>
        <coordinates>
          -55.8593492,-27.3284398,0
        </coordinates>
      </Point>
    </Placemark>
    <Placemark>
      <name>#241</name>
      <styleUrl>#icon-1608-0F9D58</styleUrl>
      <Point>
        <coordinates>
          -55.8655074,-27.3382152,0
        </coordinates>
      </Point>
    </Placemark>
    <Placemark>
      <name>#242</name>
      <styleUrl>#icon-1608-0F9D58</styleUrl>
      <Point>
        <coordinates>
          -55.8640602,-27.3380972,0
        </coordinates>
      </Point>
    </Placemark>
    <Placemark>
      <name>#243</name>
      <styleUrl>#icon-1608-0F9D58</styleUrl>
      <Point>
        <coordinates>
          -55.8640742,-27.3379313,0
        </coordinates>
      </Point>
    </Placemark>
    <Placemark>
      <name>#244</name>
      <styleUrl>#icon-1608-0F9D58</styleUrl>
      <Point>
        <coordinates>
          -55.864109,-27.3375334,0
        </coordinates>
      </Point>
    </Placemark>
    <Placemark>
      <name>#245</name>
      <styleUrl>#icon-1608-0288D1</styleUrl>
      <Point>
        <coordinates>
          -55.8641841,-27.337089,0
        </coordinates>
      </Point>
    </Placemark>
    <Placemark>
      <name>#246</name>
      <styleUrl>#icon-1608-0F9D58</styleUrl>
      <Point>
        <coordinates>
          -55.8641819,-27.3367676,0
        </coordinates>
      </Point>
    </Placemark>
    <Placemark>
      <name>#247</name>
      <styleUrl>#icon-1608-0F9D58</styleUrl>
      <Point>
        <coordinates>
          -55.8642373,-27.3363443,0
        </coordinates>
      </Point>
    </Placemark>
    <Placemark>
      <name>#248</name>
      <styleUrl>#icon-1608-0F9D58</styleUrl>
      <Point>
        <coordinates>
          -55.8640441,-27.3382677,0
        </coordinates>
      </Point>
    </Placemark>
    <Placemark>
      <name>#249</name>
      <styleUrl>#icon-1608-0F9D58</styleUrl>
      <Point>
        <coordinates>
          -55.8639943,-27.3387342,0
        </coordinates>
      </Point>
    </Placemark>
    <Placemark>
      <name>#250</name>
      <styleUrl>#icon-1608-0F9D58</styleUrl>
      <Point>
        <coordinates>
          -55.8639331,-27.339167,0
        </coordinates>
      </Point>
    </Placemark>
    <Placemark>
      <name>#251</name>
      <styleUrl>#icon-1608-0F9D58</styleUrl>
      <Point>
        <coordinates>
          -55.8638766,-27.3397188,0
        </coordinates>
      </Point>
    </Placemark>
    <Placemark>
      <name>#252</name>
      <styleUrl>#icon-1608-0F9D58</styleUrl>
      <Point>
        <coordinates>
          -55.8638296,-27.3401477,0
        </coordinates>
      </Point>
    </Placemark>
    <Placemark>
      <name>#253</name>
      <styleUrl>#icon-1608-0F9D58</styleUrl>
      <Point>
        <coordinates>
          -55.8638059,-27.3403828,0
        </coordinates>
      </Point>
    </Placemark>
    <Placemark>
      <name>#254</name>
      <styleUrl>#icon-1608-0F9D58</styleUrl>
      <Point>
        <coordinates>
          -55.8637621,-27.3407537,0
        </coordinates>
      </Point>
    </Placemark>
    <Placemark>
      <name>#255</name>
      <styleUrl>#icon-1608-0F9D58</styleUrl>
      <Point>
        <coordinates>
          -55.8637599,-27.3409859,0
        </coordinates>
      </Point>
    </Placemark>
    <Placemark>
      <name>#256</name>
      <styleUrl>#icon-1608-0F9D58</styleUrl>
      <Point>
        <coordinates>
          -55.8622885,-27.340661,0
        </coordinates>
      </Point>
    </Placemark>
    <Placemark>
      <name>#257</name>
      <styleUrl>#icon-1608-0F9D58</styleUrl>
      <Point>
        <coordinates>
          -55.8623066,-27.3404841,0
        </coordinates>
      </Point>
    </Placemark>
    <Placemark>
      <name>#258</name>
      <styleUrl>#icon-1608-0F9D58</styleUrl>
      <Point>
        <coordinates>
          -55.8623857,-27.3397904,0
        </coordinates>
      </Point>
    </Placemark>
    <Placemark>
      <name>#259</name>
      <styleUrl>#icon-1608-0288D1</styleUrl>
      <Point>
        <coordinates>
          -55.8625371,-27.3382733,0
        </coordinates>
      </Point>
    </Placemark>
    <Placemark>
      <name>#260</name>
      <styleUrl>#icon-1608-0F9D58</styleUrl>
      <Point>
        <coordinates>
          -55.8625624,-27.3379699,0
        </coordinates>
      </Point>
    </Placemark>
    <Placemark>
      <name>#261</name>
      <styleUrl>#icon-1608-0F9D58</styleUrl>
      <Point>
        <coordinates>
          -55.8626045,-27.3376558,0
        </coordinates>
      </Point>
    </Placemark>
    <Placemark>
      <name>#262</name>
      <styleUrl>#icon-1608-0F9D58</styleUrl>
      <Point>
        <coordinates>
          -55.8626582,-27.3370268,0
        </coordinates>
      </Point>
    </Placemark>
    <Placemark>
      <name>#263</name>
      <styleUrl>#icon-1608-0F9D58</styleUrl>
      <Point>
        <coordinates>
          -55.8624584,-27.3366349,0
        </coordinates>
      </Point>
    </Placemark>
    <Placemark>
      <name>#264</name>
      <styleUrl>#icon-1608-0F9D58</styleUrl>
      <Point>
        <coordinates>
          -55.8618522,-27.3365801,0
        </coordinates>
      </Point>
    </Placemark>
    <Placemark>
      <name>#265</name>
      <styleUrl>#icon-1608-0F9D58</styleUrl>
      <Point>
        <coordinates>
          -55.8615142,-27.3365265,0
        </coordinates>
      </Point>
    </Placemark>
    <Placemark>
      <name>#266</name>
      <styleUrl>#icon-1608-0F9D58</styleUrl>
      <Point>
        <coordinates>
          -55.8612228,-27.3365454,0
        </coordinates>
      </Point>
    </Placemark>
    <Placemark>
      <name>#267</name>
      <styleUrl>#icon-1608-0288D1</styleUrl>
      <Point>
        <coordinates>
          -55.8612174,-27.3366336,0
        </coordinates>
      </Point>
    </Placemark>
    <Placemark>
      <name>#268</name>
      <styleUrl>#icon-1608-0F9D58</styleUrl>
      <Point>
        <coordinates>
          -55.860976,-27.3364871,0
        </coordinates>
      </Point>
    </Placemark>
    <Placemark>
      <name>#269</name>
      <styleUrl>#icon-1608-0F9D58</styleUrl>
      <Point>
        <coordinates>
          -55.8603882,-27.3364263,0
        </coordinates>
      </Point>
    </Placemark>
    <Placemark>
      <name>#270</name>
      <styleUrl>#icon-1608-0288D1</styleUrl>
      <Point>
        <coordinates>
          -55.8601447,-27.3364001,0
        </coordinates>
      </Point>
    </Placemark>
    <Placemark>
      <name>#271</name>
      <styleUrl>#icon-1608-0F9D58</styleUrl>
      <Point>
        <coordinates>
          -55.8601018,-27.3377577,0
        </coordinates>
      </Point>
    </Placemark>
    <Placemark>
      <name>#272</name>
      <styleUrl>#icon-1608-0F9D58</styleUrl>
      <Point>
        <coordinates>
          -55.8610968,-27.3378521,0
        </coordinates>
      </Point>
    </Placemark>
    <Placemark>
      <name>#273</name>
      <styleUrl>#icon-1608-0288D1</styleUrl>
      <Point>
        <coordinates>
          -55.8610606,-27.3381664,0
        </coordinates>
      </Point>
    </Placemark>
    <Placemark>
      <name>#275</name>
      <styleUrl>#icon-1608-0F9D58</styleUrl>
      <Point>
        <coordinates>
          -55.8609788,-27.3388135,0
        </coordinates>
      </Point>
    </Placemark>
    <Placemark>
      <name>#276</name>
      <styleUrl>#icon-1608-0F9D58</styleUrl>
      <Point>
        <coordinates>
          -55.860944,-27.339174,0
        </coordinates>
      </Point>
    </Placemark>
    <Placemark>
      <name>#277</name>
      <styleUrl>#icon-1608-0F9D58</styleUrl>
      <Point>
        <coordinates>
          -55.8614559,-27.3392281,0
        </coordinates>
      </Point>
    </Placemark>
    <Placemark>
      <name>#278</name>
      <styleUrl>#icon-1608-0F9D58</styleUrl>
      <Point>
        <coordinates>
          -55.8634791,-27.3393867,0
        </coordinates>
      </Point>
    </Placemark>
    <Placemark>
      <name>#279</name>
      <styleUrl>#icon-1608-0F9D58</styleUrl>
      <Point>
        <coordinates>
          -55.8638238,-27.3394451,0
        </coordinates>
      </Point>
    </Placemark>
    <Placemark>
      <name>#280</name>
      <styleUrl>#icon-1608-0F9D58</styleUrl>
      <Point>
        <coordinates>
          -55.8595108,-27.3390659,0
        </coordinates>
      </Point>
    </Placemark>
    <Placemark>
      <name>#281</name>
      <styleUrl>#icon-1608-0F9D58</styleUrl>
      <Point>
        <coordinates>
          -55.8594947,-27.3389551,0
        </coordinates>
      </Point>
    </Placemark>
    <Placemark>
      <name>#282</name>
      <styleUrl>#icon-1608-0F9D58</styleUrl>
      <Point>
        <coordinates>
          -55.8588461,-27.3390299,0
        </coordinates>
      </Point>
    </Placemark>
    <Placemark>
      <name>#283</name>
      <styleUrl>#icon-1608-0F9D58</styleUrl>
      <Point>
        <coordinates>
          -55.8582365,-27.3389795,0
        </coordinates>
      </Point>
    </Placemark>
    <Placemark>
      <name>#284</name>
      <styleUrl>#icon-1608-0F9D58</styleUrl>
      <Point>
        <coordinates>
          -55.8581628,-27.3389211,0
        </coordinates>
      </Point>
    </Placemark>
    <Placemark>
      <name>#285</name>
      <styleUrl>#icon-1608-0F9D58</styleUrl>
      <Point>
        <coordinates>
          -55.8581107,-27.3403772,0
        </coordinates>
      </Point>
    </Placemark>
    <Placemark>
      <name>#286</name>
      <styleUrl>#icon-1608-0F9D58</styleUrl>
      <Point>
        <coordinates>
          -55.8584634,-27.3404034,0
        </coordinates>
      </Point>
    </Placemark>
    <Placemark>
      <name>#287</name>
      <styleUrl>#icon-1608-0F9D58</styleUrl>
      <Point>
        <coordinates>
          -55.8593124,-27.3404606,0
        </coordinates>
      </Point>
    </Placemark>
    <Placemark>
      <name>#288</name>
      <styleUrl>#icon-1608-0F9D58</styleUrl>
      <Point>
        <coordinates>
          -55.8592612,-27.3410523,0
        </coordinates>
      </Point>
    </Placemark>
    <Placemark>
      <name>#289</name>
      <styleUrl>#icon-1608-0F9D58</styleUrl>
      <Point>
        <coordinates>
          -55.8586076,-27.3417221,0
        </coordinates>
      </Point>
    </Placemark>
    <Placemark>
      <name>#290</name>
      <styleUrl>#icon-1608-0F9D58</styleUrl>
      <Point>
        <coordinates>
          -55.8582722,-27.3431672,0
        </coordinates>
      </Point>
    </Placemark>
    <Placemark>
      <name>#291</name>
      <styleUrl>#icon-1608-0F9D58</styleUrl>
      <Point>
        <coordinates>
          -55.8592367,-27.3437025,0
        </coordinates>
      </Point>
    </Placemark>
    <Placemark>
      <name>#292</name>
      <styleUrl>#icon-1608-0F9D58</styleUrl>
      <Point>
        <coordinates>
          -55.8672175,-27.332951,0
        </coordinates>
      </Point>
    </Placemark>
    <Placemark>
      <name>#293</name>
      <styleUrl>#icon-1608-0F9D58</styleUrl>
      <Point>
        <coordinates>
          -55.866083,-27.3364678,0
        </coordinates>
      </Point>
    </Placemark>
    <Placemark>
      <name>#294</name>
      <styleUrl>#icon-1608-0F9D58</styleUrl>
      <Point>
        <coordinates>
          -55.866174,-27.3355785,0
        </coordinates>
      </Point>
    </Placemark>
    <Placemark>
      <name>#295</name>
      <styleUrl>#icon-1608-0F9D58</styleUrl>
      <Point>
        <coordinates>
          -55.8662179,-27.3351723,0
        </coordinates>
      </Point>
    </Placemark>
    <Placemark>
      <name>#296</name>
      <styleUrl>#icon-1608-0F9D58</styleUrl>
      <Point>
        <coordinates>
          -55.8662743,-27.3346757,0
        </coordinates>
      </Point>
    </Placemark>
    <Placemark>
      <name>#297</name>
      <styleUrl>#icon-1608-0F9D58</styleUrl>
      <Point>
        <coordinates>
          -55.8663184,-27.3342578,0
        </coordinates>
      </Point>
    </Placemark>
    <Placemark>
      <name>#298</name>
      <styleUrl>#icon-1608-0F9D58</styleUrl>
      <Point>
        <coordinates>
          -55.8663935,-27.3335324,0
        </coordinates>
      </Point>
    </Placemark>
    <Placemark>
      <name>#299</name>
      <styleUrl>#icon-1608-0F9D58</styleUrl>
      <Point>
        <coordinates>
          -55.8650425,-27.3327845,0
        </coordinates>
      </Point>
    </Placemark>
    <Placemark>
      <name>#300</name>
      <styleUrl>#icon-1608-0F9D58</styleUrl>
      <Point>
        <coordinates>
          -55.8646643,-27.3327559,0
        </coordinates>
      </Point>
    </Placemark>
    <Placemark>
      <name>#301</name>
      <styleUrl>#icon-1608-0F9D58</styleUrl>
      <Point>
        <coordinates>
          -55.8646889,-27.3323216,0
        </coordinates>
      </Point>
    </Placemark>
    <Placemark>
      <name>#302</name>
      <styleUrl>#icon-1608-0F9D58</styleUrl>
      <Point>
        <coordinates>
          -55.8647238,-27.3319595,0
        </coordinates>
      </Point>
    </Placemark>
    <Placemark>
      <name>#303</name>
      <styleUrl>#icon-1608-0F9D58</styleUrl>
      <Point>
        <coordinates>
          -55.864748,-27.3316528,0
        </coordinates>
      </Point>
    </Placemark>
    <Placemark>
      <name>#304</name>
      <styleUrl>#icon-1608-0F9D58</styleUrl>
      <Point>
        <coordinates>
          -55.8645951,-27.3316385,0
        </coordinates>
      </Point>
    </Placemark>
    <Placemark>
      <name>#305</name>
      <styleUrl>#icon-1608-0F9D58</styleUrl>
      <Point>
        <coordinates>
          -55.8641297,-27.3315861,0
        </coordinates>
      </Point>
    </Placemark>
    <Placemark>
      <name>#306</name>
      <styleUrl>#icon-1608-0F9D58</styleUrl>
      <Point>
        <coordinates>
          -55.8635523,-27.3315363,0
        </coordinates>
      </Point>
    </Placemark>
    <Placemark>
      <name>#307</name>
      <styleUrl>#icon-1608-0F9D58</styleUrl>
      <Point>
        <coordinates>
          -55.8632674,-27.3315124,0
        </coordinates>
      </Point>
    </Placemark>
    <Placemark>
      <name>#308</name>
      <styleUrl>#icon-1608-0F9D58</styleUrl>
      <Point>
        <coordinates>
          -55.8632377,-27.3317112,0
        </coordinates>
      </Point>
    </Placemark>
    <Placemark>
      <name>#309</name>
      <styleUrl>#icon-1608-0F9D58</styleUrl>
      <Point>
        <coordinates>
          -55.8629721,-27.3314872,0
        </coordinates>
      </Point>
    </Placemark>
    <Placemark>
      <name>#310</name>
      <styleUrl>#icon-1608-0F9D58</styleUrl>
      <Point>
        <coordinates>
          -55.8622372,-27.3314419,0
        </coordinates>
      </Point>
    </Placemark>
    <Placemark>
      <name>#311</name>
      <styleUrl>#icon-1608-0288D1</styleUrl>
      <Point>
        <coordinates>
          -55.8617761,-27.3314181,0
        </coordinates>
      </Point>
    </Placemark>
    <Placemark>
      <name>#312</name>
      <styleUrl>#icon-1608-0F9D58</styleUrl>
      <Point>
        <coordinates>
          -55.8616378,-27.33247,0
        </coordinates>
      </Point>
    </Placemark>
    <Placemark>
      <name>#313</name>
      <styleUrl>#icon-1608-0F9D58</styleUrl>
      <Point>
        <coordinates>
          -55.8616968,-27.3321126,0
        </coordinates>
      </Point>
    </Placemark>
    <Placemark>
      <name>#314</name>
      <styleUrl>#icon-1608-0F9D58</styleUrl>
      <Point>
        <coordinates>
          -55.8617477,-27.3317171,0
        </coordinates>
      </Point>
    </Placemark>
    <Placemark>
      <name>#315</name>
      <styleUrl>#icon-1608-0F9D58</styleUrl>
      <Point>
        <coordinates>
          -55.8649071,-27.331668,0
        </coordinates>
      </Point>
    </Placemark>
    <Placemark>
      <name>#316</name>
      <styleUrl>#icon-1608-0F9D58</styleUrl>
      <Point>
        <coordinates>
          -55.8653287,-27.3317037,0
        </coordinates>
      </Point>
    </Placemark>
    <Placemark>
      <name>#317</name>
      <styleUrl>#icon-1608-0F9D58</styleUrl>
      <Point>
        <coordinates>
          -55.8663062,-27.3317883,0
        </coordinates>
      </Point>
    </Placemark>
    <Placemark>
      <name>#318</name>
      <styleUrl>#icon-1608-0F9D58</styleUrl>
      <Point>
        <coordinates>
          -55.8668622,-27.3318357,0
        </coordinates>
      </Point>
    </Placemark>
    <Placemark>
      <name>#319</name>
      <styleUrl>#icon-1608-0F9D58</styleUrl>
      <Point>
        <coordinates>
          -55.8665859,-27.3315399,0
        </coordinates>
      </Point>
    </Placemark>
    <Placemark>
      <name>#320</name>
      <styleUrl>#icon-1608-0F9D58</styleUrl>
      <Point>
        <coordinates>
          -55.8666588,-27.3309826,0
        </coordinates>
      </Point>
    </Placemark>
    <Placemark>
      <name>#321</name>
      <styleUrl>#icon-1608-0F9D58</styleUrl>
      <Point>
        <coordinates>
          -55.8664723,-27.3304256,0
        </coordinates>
      </Point>
    </Placemark>
    <Placemark>
      <name>#322</name>
      <styleUrl>#icon-1608-0F9D58</styleUrl>
      <Point>
        <coordinates>
          -55.8667835,-27.3299879,0
        </coordinates>
      </Point>
    </Placemark>
    <Placemark>
      <name>#323</name>
      <styleUrl>#icon-1608-0F9D58</styleUrl>
      <Point>
        <coordinates>
          -55.8668637,-27.3291605,0
        </coordinates>
      </Point>
    </Placemark>
    <Placemark>
      <name>#324</name>
      <styleUrl>#icon-1608-0F9D58</styleUrl>
      <Point>
        <coordinates>
          -55.8669197,-27.3287626,0
        </coordinates>
      </Point>
    </Placemark>
    <Placemark>
      <name>#325</name>
      <styleUrl>#icon-1608-0F9D58</styleUrl>
      <Point>
        <coordinates>
          -55.8608338,-27.3418691,0
        </coordinates>
      </Point>
    </Placemark>
    <Placemark>
      <name>#326</name>
      <styleUrl>#icon-1608-0F9D58</styleUrl>
      <Point>
        <coordinates>
          -55.8605915,-27.3428782,0
        </coordinates>
      </Point>
    </Placemark>
    <Placemark>
      <name>#327</name>
      <styleUrl>#icon-1608-0F9D58</styleUrl>
      <Point>
        <coordinates>
          -55.8606102,-27.3424613,0
        </coordinates>
      </Point>
    </Placemark>
    <Placemark>
      <name>#328</name>
      <styleUrl>#icon-1608-0F9D58</styleUrl>
      <Point>
        <coordinates>
          -55.8606183,-27.3420848,0
        </coordinates>
      </Point>
    </Placemark>
    <Placemark>
      <name>#329</name>
      <styleUrl>#icon-1608-0F9D58</styleUrl>
      <Point>
        <coordinates>
          -55.8604298,-27.3418508,0
        </coordinates>
      </Point>
    </Placemark>
    <Placemark>
      <name>#330</name>
      <styleUrl>#icon-1608-0F9D58</styleUrl>
      <Point>
        <coordinates>
          -55.8602547,-27.3418244,0
        </coordinates>
      </Point>
    </Placemark>
    <Placemark>
      <name>#331</name>
      <styleUrl>#icon-1608-0F9D58</styleUrl>
      <Point>
        <coordinates>
          -55.8598256,-27.3417934,0
        </coordinates>
      </Point>
    </Placemark>
    <Placemark>
      <name>#332</name>
      <styleUrl>#icon-1608-0F9D58</styleUrl>
      <Point>
        <coordinates>
          -55.8606776,-27.3414148,0
        </coordinates>
      </Point>
    </Placemark>
    <Placemark>
      <name>#333</name>
      <styleUrl>#icon-1608-0F9D58</styleUrl>
      <Point>
        <coordinates>
          -55.860707,-27.3411203,0
        </coordinates>
      </Point>
    </Placemark>
    <Placemark>
      <name>#334</name>
      <styleUrl>#icon-1608-0F9D58</styleUrl>
      <Point>
        <coordinates>
          -55.8596689,-27.3404777,0
        </coordinates>
      </Point>
    </Placemark>
    <Placemark>
      <name>#335</name>
      <styleUrl>#icon-1608-0F9D58</styleUrl>
      <Point>
        <coordinates>
          -55.8600337,-27.3405086,0
        </coordinates>
      </Point>
    </Placemark>
    <Placemark>
      <name>#336</name>
      <styleUrl>#icon-1608-0F9D58</styleUrl>
      <Point>
        <coordinates>
          -55.8602309,-27.3405158,0
        </coordinates>
      </Point>
    </Placemark>
    <Placemark>
      <name>#337</name>
      <styleUrl>#icon-1608-0F9D58</styleUrl>
      <Point>
        <coordinates>
          -55.8610849,-27.3405719,0
        </coordinates>
      </Point>
    </Placemark>
    <Placemark>
      <name>#338</name>
      <styleUrl>#icon-1608-0F9D58</styleUrl>
      <Point>
        <coordinates>
          -55.86081,-27.3403598,0
        </coordinates>
      </Point>
    </Placemark>
    <Placemark>
      <name>#339</name>
      <styleUrl>#icon-1608-0F9D58</styleUrl>
      <Point>
        <coordinates>
          -55.8693409,-27.3341118,0
        </coordinates>
      </Point>
    </Placemark>
    <Placemark>
      <name>#340</name>
      <styleUrl>#icon-1608-0F9D58</styleUrl>
      <Point>
        <coordinates>
          -55.8694019,-27.3335403,0
        </coordinates>
      </Point>
    </Placemark>
    <Placemark>
      <name>#341</name>
      <styleUrl>#icon-1608-0F9D58</styleUrl>
      <Point>
        <coordinates>
          -55.8694568,-27.3331852,0
        </coordinates>
      </Point>
    </Placemark>
    <Placemark>
      <name>#342</name>
      <styleUrl>#icon-1608-0F9D58</styleUrl>
      <Point>
        <coordinates>
          -55.8694645,-27.3330122,0
        </coordinates>
      </Point>
    </Placemark>
    <Placemark>
      <name>#343</name>
      <styleUrl>#icon-1608-0288D1</styleUrl>
      <Point>
        <coordinates>
          -55.869498,-27.3327728,0
        </coordinates>
      </Point>
    </Placemark>
    <Placemark>
      <name>#344</name>
      <styleUrl>#icon-1608-0F9D58</styleUrl>
      <Point>
        <coordinates>
          -55.8695322,-27.3324505,0
        </coordinates>
      </Point>
    </Placemark>
    <Placemark>
      <name>#345</name>
      <styleUrl>#icon-1608-0F9D58</styleUrl>
      <Point>
        <coordinates>
          -55.869563,-27.3322218,0
        </coordinates>
      </Point>
    </Placemark>
    <Placemark>
      <name>#346</name>
      <styleUrl>#icon-1608-0F9D58</styleUrl>
      <Point>
        <coordinates>
          -55.869576,-27.3320737,0
        </coordinates>
      </Point>
    </Placemark>
    <Placemark>
      <name>#347</name>
      <styleUrl>#icon-1608-0F9D58</styleUrl>
      <Point>
        <coordinates>
          -55.8705455,-27.3321565,0
        </coordinates>
      </Point>
    </Placemark>
    <Placemark>
      <name>#348</name>
      <styleUrl>#icon-1608-0F9D58</styleUrl>
      <Point>
        <coordinates>
          -55.8710151,-27.3321848,0
        </coordinates>
      </Point>
    </Placemark>
    <Placemark>
      <name>#349</name>
      <styleUrl>#icon-1608-0F9D58</styleUrl>
      <Point>
        <coordinates>
          -55.8700012,-27.3321014,0
        </coordinates>
      </Point>
    </Placemark>
    <Placemark>
      <name>#350</name>
      <styleUrl>#icon-1608-0F9D58</styleUrl>
      <Point>
        <coordinates>
          -55.8695966,-27.3318944,0
        </coordinates>
      </Point>
    </Placemark>
    <Placemark>
      <name>#351</name>
      <styleUrl>#icon-1608-0F9D58</styleUrl>
      <Point>
        <coordinates>
          -55.8696376,-27.3315049,0
        </coordinates>
      </Point>
    </Placemark>
    <Placemark>
      <name>#352</name>
      <styleUrl>#icon-1608-0F9D58</styleUrl>
      <Point>
        <coordinates>
          -55.8697345,-27.3307217,0
        </coordinates>
      </Point>
    </Placemark>
    <Placemark>
      <name>#353</name>
      <styleUrl>#icon-1608-0F9D58</styleUrl>
      <Point>
        <coordinates>
          -55.8697319,-27.3303812,0
        </coordinates>
      </Point>
    </Placemark>
    <Placemark>
      <name>#354</name>
      <styleUrl>#icon-1608-0F9D58</styleUrl>
      <Point>
        <coordinates>
          -55.8698182,-27.3299027,0
        </coordinates>
      </Point>
    </Placemark>
    <Placemark>
      <name>#355</name>
      <styleUrl>#icon-1608-0F9D58</styleUrl>
      <Point>
        <coordinates>
          -55.8698746,-27.3293904,0
        </coordinates>
      </Point>
    </Placemark>
    <Placemark>
      <name>#356</name>
      <styleUrl>#icon-1608-0F9D58</styleUrl>
      <Point>
        <coordinates>
          -55.8699089,-27.329003,0
        </coordinates>
      </Point>
    </Placemark>
    <Placemark>
      <name>#357</name>
      <styleUrl>#icon-1608-0F9D58</styleUrl>
      <Point>
        <coordinates>
          -55.8699908,-27.3280323,0
        </coordinates>
      </Point>
    </Placemark>
    <Placemark>
      <name>#358</name>
      <styleUrl>#icon-1608-0F9D58</styleUrl>
      <Point>
        <coordinates>
          -55.8695432,-27.3293759,0
        </coordinates>
      </Point>
    </Placemark>
    <Placemark>
      <name>#359</name>
      <styleUrl>#icon-1608-0F9D58</styleUrl>
      <Point>
        <coordinates>
          -55.8637187,-27.3301979,0
        </coordinates>
      </Point>
    </Placemark>
    <Placemark>
      <name>#360</name>
      <styleUrl>#icon-1608-0F9D58</styleUrl>
      <Point>
        <coordinates>
          -55.8644322,-27.3302598,0
        </coordinates>
      </Point>
    </Placemark>
    <Placemark>
      <name>#361</name>
      <styleUrl>#icon-1608-0F9D58</styleUrl>
      <Point>
        <coordinates>
          -55.864856,-27.3308508,0
        </coordinates>
      </Point>
    </Placemark>
    <Placemark>
      <name>#362</name>
      <styleUrl>#icon-1608-0F9D58</styleUrl>
      <Point>
        <coordinates>
          -55.8696881,-27.3310762,0
        </coordinates>
      </Point>
    </Placemark>
    <Placemark>
      <name>#363</name>
      <styleUrl>#icon-1608-0F9D58</styleUrl>
      <Point>
        <coordinates>
          -55.8607818,-27.3405576,0
        </coordinates>
      </Point>
    </Placemark>
  </Document>
</kml>